{"spkid": "50843702", "covariance": {"elements": [{"label": "e", "units": null, "value": ".5951616491610415", "title": "eccentricity", "name": "e", "sigma": 8.73690670744195e-08}, {"name": "q", "sigma": 2.22504789035867e-07, "title": "perihelion distance", "value": "1.0232567871269", "units": "au", "label": "q"}, {"sigma": 4.88692653050223e-05, "name": "tp", "units": "TDB", "title": "time of perihelion passage", "value": "2458761.377893531278", "label": "tp"}, {"label": "node", "sigma": 4.79319156494783e-05, "name": "om", "units": "deg", "title": "longitude of the ascending node", "value": "179.0154553268441"}, {"label": "peri", "name": "w", "sigma": 5.29470273108281e-05, "units": "deg", "title": "argument of perihelion", "value": "198.2462114365717"}, {"label": "i", "sigma": 3.05552496820621e-05, "name": "i", "title": "inclination", "value": "10.29794436429138", "units": "deg"}], "data": [["7.633353881454421E-15", "-1.943779819909836E-14", "3.195170206998569E-12", "3.014515150437729E-12", "1.311775093976956E-12", "-1.587705256345978E-12"], ["-1.943779819909836E-14", "4.95083811438955E-14", "-8.134131304260053E-12", "-7.726826119275024E-12", "-3.283451168526724E-12", "4.073870314853678E-12"], ["3.195170206998569E-12", "-8.134131304260053E-12", "2.388205091452654E-9", "1.105708095870721E-9", "1.813858730720131E-9", "-1.562656962549466E-10"], ["3.014515150437729E-12", "-7.726826119275024E-12", "1.105708095870721E-9", "2.297468537828701E-9", "-7.333327898715741E-10", "-1.191567700350637E-9"], ["1.311775093976956E-12", "-3.283451168526724E-12", "1.813858730720131E-9", "-7.333327898715741E-10", "2.803387701053581E-9", "8.216353280056086E-10"], ["-1.587705256345978E-12", "4.073870314853678E-12", "-1.562656962549466E-10", "-1.191567700350637E-9", "8.216353280056086E-10", "9.336232831331576E-10"]], "labels": ["e", "q", "tp", "node", "peri", "i"], "epoch": "2459009.5"}, "elements": [{"title": "eccentricity", "value": ".5957851577363312", "units": null, "name": "e", "sigma": "8.9154E-8", "label": "e"}, {"sigma": "1.1533E-8", "name": "a", "title": "semi-major axis", "value": "2.52917793120922", "units": "au", "label": "a"}, {"units": "au", "value": "1.022331258520487", "title": "perihelion distance", "sigma": "2.2232E-7", "name": "q", "label": "q"}, {"sigma": "3.0647E-5", "name": "i", "title": "inclination; angle with respect to x-y ecliptic plane", "value": "10.287120349731", "units": "deg", "label": "i"}, {"sigma": "4.7755E-5", "name": "om", "value": "178.9775156717993", "title": "longitude of the ascending node", "units": "deg", "label": "node"}, {"sigma": "5.2785E-5", "name": "w", "units": "deg", "value": "198.3254896896745", "title": "argument of perihelion", "label": "peri"}, {"label": "M", "name": "ma", "sigma": "1.1742E-5", "title": "mean anomaly", "value": "238.2063479325799", "units": "deg"}, {"label": "tp", "value": "2461697.538070706461", "title": "time of perihelion passage", "units": "TDB", "sigma": "4.9287E-5", "name": "tp"}, {"label": "period", "value": "1469.154610416604", "title": "sidereal orbital period", "units": "d", "sigma": "1.0049E-5", "name": "per"}, {"label": "n", "sigma": "1.6761E-9", "name": "n", "units": "deg/d", "value": ".2450388798071537", "title": "mean motion"}, {"title": "aphelion distance", "value": "4.036024603897953", "units": "au", "sigma": "1.8405E-8", "name": "ad", "label": "Q"}], "epoch": "2461200.5"}